SPACEMOBILE-006         
1 67232U 25309A   26074.17508363  .00004564  00000+0  23647-3 0  9994
2 67232  52.9950  42.0753 0010177 196.9495 163.1160 15.18058661 12318
